TRANSIT 16 [?]          
1 02807U 67048A   16299.56693201  .00000088  00000-0  12109-3 0  9993
2 02807  89.6278 113.4910 0021600  40.7784  23.4457 13.50132081433163
TRANSIT 17 [?]          
1 02965U 67092A   16298.10853995  .00000090  00000-0  11756-3 0  9994
2 02965  89.2383 277.7668 0047061 197.6679 207.5108 13.52854597420203
TRANSIT 18 [?]          
1 03133U 68012A   16299.06824544  .00000119  00000-0  16573-3 0  9993
2 03133  89.9555 276.1404 0077531 109.4768 303.4714 13.50962208395268
NNSS 19 [?]             
1 04507U 70067A   16298.88692359  .00000058  00000-0  69546-4 0  9999
2 04507  89.8276 266.7126 0170476 231.2125 190.4804 13.50626291272269
NNSS O-20 [?]           
1 06909U 73081A   16298.63875704  .00000082  00000-0  75298-4 0  9994
2 06909  89.8283 316.8351 0157014 351.4036   8.4441 13.70412507346881
TRANSAT [?]             
1 10457U 77106A   16299.26943652  .00000031  00000-0  33406-4 0  9996
2 10457  89.7685 177.5010 0027116  87.8659  29.7786 13.48555169918074
NOVA I [?]              
1 12458U 81044A   16298.57088074  .00000067  00000-0  13960-3 0  9997
2 12458  89.9603 122.3351 0012701 306.0421 112.8594 13.22951778710992
NOVA 3 [?]              
1 15362U 84110A   16299.22704346  .00000038  00000-0  69689-4 0  9999
2 15362  90.0441  53.8731 0032576 159.2330 262.9022 13.22721058546289
OSCAR 30 [?]            
1 15935U 85066A   16298.20737984  .00000025  00000-0  27161-4 0  9992
2 15935  90.1304  47.2703 0170444 133.9973 290.4427 13.35601400519185
OSCAR 24 [?]            
1 15936U 85066B   16299.42564745  .00000027  00000-0  30972-4 0  9997
2 15936  90.1189  41.3659 0171250 134.7682 271.1888 13.35482793521445
POLAR BEAR [?]          
1 17070U 86088A   16298.56460841  .00000058  00000-0  48631-4 0  9994
2 17070  89.5417 338.4748 0040923  96.8830  24.6139 13.74712934501653
OSCAR 27 [?]            
1 18361U 87080A   16299.54424895  .00000070  00000-0  10077-3 0  9995
2 18361  90.3348 327.7038 0106263  52.8425 308.2369 13.44416323427647
OSCAR 29 [?]            
1 18362U 87080B   16299.57515692  .00000046  00000-0  61169-4 0  9997
2 18362  90.3352 327.9244 0108234  68.5869  52.9878 13.44010058427328
OSCAR 23 [?]            
1 19070U 88033A   16298.93791487  .00000080  00000-0  14204-3 0  9995
2 19070  90.3568 265.1927 0192429  94.2989 325.3496 13.27394193380229
OSCAR 32 [?]            
1 19071U 88033B   16298.98711117  .00000023  00000-0  25926-4 0  9994
2 19071  90.3567 265.2718 0190410  83.8399 343.9383 13.27579226380442
NOVA 11 [?]             
1 19223U 88052A   16297.95794925  .00000048  00000-0  93347-4 0  9997
2 19223  89.9624  87.8109 0029793 204.9296 269.3523 13.22637698368365
OSCAR 25 [?]            
1 19419U 88074A   16297.85219634  .00000039  00000-0  50734-4 0  9999
2 19419  89.9868  19.3675 0097529  43.0129  93.3443 13.42148234379025
OSCAR 31 [?]            
1 19420U 88074B   16298.85435550  .00000042  00000-0  56223-4 0  9992
2 19420  89.9872  19.3698 0095454  34.4727  94.1609 13.42162687379267
